[{"OBJECT_NAME":"STARLINK-1585","OBJECT_ID":"2020-057A","EPOCH":"2026-03-10T00:00:02.999808","MEAN_MOTION":15.83808209,"ECCENTRICITY":9.633e-5,"INCLINATION":53.0404,"RA_OF_ASC_NODE":245.461,"ARG_OF_PERICENTER":185.9562,"MEAN_ANOMALY":86.7095,"EPHEMERIS_TYPE":0,"CLASSIFICATION_TYPE":"U","NORAD_CAT_ID":46117,"ELEMENT_SET_NO":999,"REV_AT_EPOCH":598,"BSTAR":0.0013789773,"MEAN_MOTION_DOT":0.00323412,"MEAN_MOTION_DDOT":0},{"OBJECT_NAME":"STARLINK-2116","OBJECT_ID":"2021-017C","EPOCH":"2026-03-10T00:00:02.999808","MEAN_MOTION":15.83206556,"ECCENTRICITY":0.00033393,"INCLINATION":53.0386,"RA_OF_ASC_NODE":82.6444,"ARG_OF_PERICENTER":325.049,"MEAN_ANOMALY":111.3473,"EPHEMERIS_TYPE":0,"CLASSIFICATION_TYPE":"U","NORAD_CAT_ID":47724,"ELEMENT_SET_NO":999,"REV_AT_EPOCH":599,"BSTAR":0.0013667213,"MEAN_MOTION_DOT":0.00311123,"MEAN_MOTION_DDOT":0}]
